id,zip,state,county,poverty,price2007
6,32162,FL,marion,13.0,265600
13,78572,TX,hidalgo,34.0,79900
20,11212,NY,kings,21.9,332000
30,37042,TN,montgomery,12.7,98700
37,85032,AZ,maricopa,12.9,266100
67,23462,VA,virginia beach city,6.6,198300
77,93722,CA,fresno,20.0,320000
82,98052,WA,king,9.9,475800
103,20002,DC,district of columbia,-1.0,372400
119,33012,FL,miami-dade,15.3,218600
123,11372,NY,queens,12.2,364100
128,30062,GA,cobb,9.4,241200
141,6902,CT,fairfield,6.7,460600
153,91342,CA,los angeles,14.6,523100
158,29732,SC,york,12.1,139200
160,23452,VA,virginia beach city,6.6,233200
173,92592,CA,riverside,11.7,507500
178,94122,CA,san francisco,10.6,783400
181,30022,GA,fulton,14.2,319200
189,21222,MD,baltimore,19.9,150200
190,97402,OR,lane,14.3,193500
206,74012,OK,tulsa,14.2,121000
217,30052,GA,walton,12.2,168600
227,90802,CA,los angeles,14.6,362000
228,21122,MD,anne arundel,5.0,330300
268,98012,WA,snohomish,8.0,389600
271,35242,AL,jefferson,15.1,311600
275,85282,AZ,maricopa,12.9,272000
278,98632,WA,cowlitz,15.4,168600
285,85022,AZ,maricopa,12.9,287700
301,32792,FL,seminole,9.1,243300
328,92122,CA,san diego,11.1,587400
331,59102,MT,yellowstone,9.7,164800
335,94112,CA,san francisco,10.6,693100
348,92562,CA,riverside,11.7,492700
349,41042,KY,boone,6.2,136200
352,90042,CA,los angeles,14.6,513200
374,29072,SC,lexington,10.9,173800
386,22192,VA,prince william,5.0,407600
393,98682,WA,clark,9.5,230000
401,20852,MD,montgomery,5.1,452700
422,23322,VA,chesapeake city,8.0,358500
423,92882,CA,riverside,11.7,542800
460,19382,PA,chester,5.5,373500
471,19702,DE,new castle,10.1,218900
475,95112,CA,santa clara,8.3,591500
479,33312,FL,broward,11.4,298800
482,65202,MO,boone,16.0,130200
502,87112,NM,bernalillo,14.9,172800
559,15642,PA,westmoreland,9.5,129500
567,23112,VA,chesterfield,5.8,228900
574,17602,PA,lancaster,8.6,126200
575,93312,CA,kern,18.1,393300
577,43232,OH,franklin,16.2,100000
586,6492,CT,new haven,9.5,282500
596,34952,FL,saint lucie,10.8,221800
599,91402,CA,los angeles,14.6,486100
601,44102,OH,cuyahoga,15.7,76900
602,65802,MO,greene,13.7,87000
603,33322,FL,broward,11.4,218800
604,80012,CO,arapahoe,11.1,180900
611,33062,FL,broward,11.4,435200
637,72712,AR,benton,11.3,170000
641,89502,NV,washoe,10.2,290200
647,37122,TN,wilson,7.2,193200
657,10312,NY,richmond,10.1,454400
666,33612,FL,hillsborough,11.6,157700
687,96822,HI,honolulu,7.8,529600
715,85122,AZ,pinal,12.5,203200
738,85382,AZ,maricopa,12.9,323200
754,55112,MN,ramsey,13.5,242300
788,27612,NC,wake,8.5,229500
789,21502,MD,allegany,14.2,87500
791,97202,OR,multnomah,15.0,334900
793,18702,PA,luzerne,11.7,56000
794,7712,NJ,monmouth,6.1,394600
803,75062,TX,dallas,16.9,127100
816,34112,FL,collier,9.9,302100
828,92692,CA,orange,8.9,726100
839,98122,WA,king,9.9,422200
840,44212,OH,medina,6.7,169300
841,11432,NY,queens,12.2,600100
851,91762,CA,san bernardino,12.1,432300
852,23602,VA,newport news city,14.7,208400
853,52402,IA,linn,9.9,124300
859,97702,OR,deschutes,8.9,370400
868,73072,OK,cleveland,10.0,156300
871,63122,MO,saint louis,23.0,246300
873,90022,CA,los angeles,14.6,415700
892,6082,CT,hartford,9.3,212000
897,91942,CA,san diego,11.1,467900
915,98902,WA,yakima,19.7,117000
917,95822,CA,sacramento,12.2,307100
936,20902,MD,montgomery,5.1,427100
951,28562,NC,craven,13.9,186400
952,18102,PA,lehigh,9.1,83900
954,11772,NY,suffolk,5.3,348200
977,29412,SC,charleston,15.2,239400
993,28412,NC,new hanover,13.7,196900
995,91702,CA,los angeles,14.6,440500
997,97302,OR,marion,15.2,211000
1022,28262,NC,mecklenburg,11.0,140900
1033,1902,MA,essex,10.4,262200
1045,20772,MD,prince georges,8.1,349600
1053,99362,WA,walla walla,17.4,175800
1055,78542,TX,hidalgo,34.0,72500
1058,1752,MA,middlesex,6.9,335800
1065,53202,WI,milwaukee,18.2,255100
1087,85142,AZ,pinal,12.5,339000
1092,94102,CA,san francisco,10.6,561200
1095,92672,CA,orange,8.9,939900
1112,28212,NC,mecklenburg,11.0,114300
1118,85712,AZ,pima,14.9,196300
1131,60062,IL,cook,14.6,558400
1132,52302,IA,linn,9.9,134500
1135,98042,WA,king,9.9,343800
1150,19132,PA,philadelphia,23.5,42600
1155,60462,IL,cook,14.6,295900
1185,45342,OH,montgomery,14.8,142900
1187,52722,IA,scott,11.4,158900
1208,27292,NC,davidson,15.1,82000
1222,19082,PA,delaware,9.7,106700
1224,44122,OH,cuyahoga,15.7,217900
1245,8012,NJ,gloucester,7.6,238700
1250,22202,VA,arlington,6.5,581900
1254,8902,NJ,middlesex,6.6,356400
1262,73112,OK,oklahoma,15.9,91600
1267,21702,MD,frederick,5.3,337400
1285,44512,OH,mahoning,16.6,109600
1295,95062,CA,santa cruz,10.6,738600
1334,20032,DC,district of columbia,-1.0,215800
1343,97222,OR,clackamas,9.2,231500
1344,78412,TX,nueces,19.1,103900
1362,32712,FL,orange,11.6,304900
1376,98102,WA,king,9.9,398700
1379,60302,IL,cook,14.6,364100
1387,91732,CA,los angeles,14.6,462700
1389,90262,CA,los angeles,14.6,429200
1414,34232,FL,sarasota,8.1,257500
1425,14612,NY,monroe,13.3,124700
1429,77642,TX,jefferson,17.1,46700
1434,2472,MA,middlesex,6.9,414700
1447,30152,GA,cobb,9.4,221300
1480,28092,NC,lincoln,10.5,97700
1487,8302,NJ,cumberland,17.4,131500
1512,98092,WA,king,9.9,352900
1532,43402,OH,wood,10.8,151900
1537,85302,AZ,maricopa,12.9,241900
1540,33702,FL,pinellas,11.3,196500
1548,8332,NJ,cumberland,17.4,142300
1584,33172,FL,miami-dade,15.3,211100
1588,95762,CA,el dorado,8.2,662500
1590,93612,CA,fresno,20.0,292300
1591,1702,MA,middlesex,6.9,329600
1594,62002,IL,madison,11.3,73000
1604,30092,GA,gwinnett,8.4,296600
1617,53212,WI,milwaukee,18.2,119000
1618,33952,FL,charlotte,9.2,169100
1621,92102,CA,san diego,11.1,413100
1622,17402,PA,york,8.6,186500
1629,55082,MN,washington,4.7,300900
1643,86442,AZ,mohave,13.5,216600
1644,92262,CA,riverside,11.7,403000
1646,21842,MD,worcester,9.2,369300
1666,17112,PA,dauphin,11.0,178700
1670,80022,CO,adams,12.8,172400
1687,1852,MA,middlesex,6.9,253000
1691,44312,OH,summit,14.0,105700
1715,58102,ND,cass,11.5,120000
1716,30102,GA,cobb,9.4,160500
1722,77092,TX,harris,16.3,126500
1738,48312,MI,macomb,8.3,183100
1743,32812,FL,orange,11.6,268000
1748,53402,WI,racine,9.2,163400
1750,60202,IL,cook,14.6,296100
1751,15212,PA,allegheny,11.6,62500
1758,7202,NJ,union,8.0,385100
1778,19152,PA,philadelphia,23.5,204000
1782,33462,FL,palm beach,10.2,268800
1784,30342,GA,fulton,14.2,432500
1792,96792,HI,honolulu,7.8,324100
1808,91362,CA,ventura,8.7,780800
1809,98032,WA,king,9.9,276900
1813,97322,OR,linn,13.8,154500
1816,94582,CA,contra costa,8.7,947300
1837,21042,MD,howard,4.5,615300
1846,85042,AZ,maricopa,12.9,211000
1848,13502,NY,oneida,14.5,78600
1852,28052,NC,gaston,14.8,76600
1858,3102,NH,hillsborough,7.0,216900
1871,38002,TN,shelby,20.1,209800
1881,33162,FL,miami-dade,15.3,284000
1885,21212,MD,baltimore city,19.9,275800
1902,53132,WI,milwaukee,18.2,182200
1905,50322,IA,polk,9.4,162900
1915,90032,CA,los angeles,14.6,448900
1944,93012,CA,ventura,8.7,612800
1950,21742,MD,washington,10.5,268400
1959,23832,VA,chesterfield,5.8,204000
1965,32082,FL,saint johns,6.7,501000
1992,55122,MN,dakota,5.4,246200
2015,93292,CA,tulare,23.2,278400
2018,28792,NC,henderson,10.9,146900
2019,98312,WA,kitsap,8.9,232400
2048,72032,AR,faulkner,14.9,94300
2066,98502,WA,thurston,9.5,308400
2091,95662,CA,sacramento,12.2,388100
2094,94952,CA,sonoma,8.9,675800
2097,72762,AR,washington,15.4,168200
2098,48152,MI,wayne,20.8,210700
2101,98002,WA,king,9.9,249800
2113,37922,TN,knox,12.8,253700
2122,90242,CA,los angeles,14.6,558600
2124,30132,GA,paulding,6.9,153400
2126,71112,LA,bossier,15.0,99900
2129,15102,PA,allegheny,11.6,142400
2134,44052,OH,lorain,11.2,88300
2139,55432,MN,anoka,6.4,211600
2147,40502,KY,fayette,15.9,235300
2156,95482,CA,mendocino,15.4,373500
2161,54302,WI,brown,10.3,112700
2165,16602,PA,blair,13.8,74200
2167,60532,IL,du page,4.8,308200
2175,95382,CA,stanislaus,13.6,410300
2193,85392,AZ,maricopa,12.9,303800
2196,77382,TX,montgomery,9.8,230900
2201,34652,FL,pasco,11.9,143100
2212,96002,CA,shasta,13.4,283100
2216,37312,TN,bradley,15.7,140900
2220,24012,VA,roanoke city,16.9,121100
2231,29212,SC,lexington,10.9,146400
2236,96782,HI,honolulu,7.8,539200
2238,48322,MI,oakland,8.6,284300
2240,30542,GA,hall,12.0,173900
2241,43612,OH,lucas,16.9,90200
2250,17522,PA,lancaster,8.6,177600
2260,19002,PA,montgomery,5.3,421400
2265,6512,CT,new haven,9.5,242900
2275,8742,NJ,ocean,8.4,479000
2280,55422,MN,hennepin,10.6,229400
2283,53142,WI,kenosha,11.8,180200
2292,2062,MA,norfolk,6.4,406600
2303,46222,IN,marion,15.6,68300
2372,80112,CO,arapahoe,11.1,272400
2373,95122,CA,santa clara,8.3,603400
2404,37072,TN,davidson,15.2,160200
2409,22042,VA,fairfax,5.5,503800
2410,37172,TN,robertson,11.6,121600
2422,33542,FL,pasco,11.9,133100
2435,95682,CA,el dorado,8.2,478200
2437,94602,CA,alameda,11.0,650900
2440,75042,TX,dallas,16.9,111500
2446,32312,FL,leon,17.0,295700
2454,84062,UT,utah,11.4,199900
2457,80122,CO,arapahoe,11.1,262800
2467,36532,AL,baldwin,10.3,234900
2475,20782,MD,prince georges,8.1,367800
2477,76262,TX,denton,7.1,197000
2484,48162,MI,monroe,7.8,151200
2486,48602,MI,saginaw,17.0,59900
2493,27502,NC,wake,8.5,219500
2502,73162,OK,oklahoma,15.9,157300
2518,22312,VA,fairfax,5.5,466800
2522,29642,SC,pickens,16.4,140700
2539,27302,NC,alamance,13.0,143700
2540,30312,GA,fulton,14.2,224300
2549,80302,CO,boulder,12.1,461700
2554,95132,CA,santa clara,8.3,698900
2559,8822,NJ,hunterdon,3.7,453100
2562,97062,OR,washington,8.6,328400
2565,98662,WA,clark,9.5,231200
2585,18052,PA,lehigh,9.1,194900
2587,70802,LA,east baton rouge,18.1,64600
2589,92802,CA,orange,8.9,596000
2620,55372,MN,scott,4.2,301200
2623,27332,NC,lee,14.3,121900
2635,91352,CA,los angeles,14.6,514400
2645,17022,PA,lancaster,8.6,175800
2646,93422,CA,san luis obispo,11.5,528100
2664,12302,NY,schenectady,11.1,174400
2698,94002,CA,san mateo,6.0,931700
2705,33432,FL,palm beach,10.2,603900
2711,32962,FL,indian river,9.7,171800
2712,45042,OH,butler,11.9,121500
2713,95842,CA,sacramento,12.2,308900
2720,53562,WI,dane,10.9,286600
2728,98512,WA,thurston,9.5,285400
2740,68502,NE,lancaster,10.9,118500
2742,60102,IL,mchenry,5.3,288200
2746,2302,MA,plymouth,6.5,259700
2750,91722,CA,los angeles,14.6,478600
2764,28602,NC,catawba,11.1,92400
2768,60142,IL,mchenry,5.3,269500
2789,97502,OR,jackson,13.4,271500
2790,73132,OK,oklahoma,15.9,131600
2793,2072,MA,norfolk,6.4,334600
2797,81212,CO,fremont,18.7,141000
2802,2132,MA,suffolk,19.3,411300
2803,10562,NY,westchester,7.7,473200
2813,90302,CA,los angeles,14.6,442300
2814,33772,FL,pinellas,11.3,237400
2832,48192,MI,wayne,20.8,127600
2849,95472,CA,sonoma,8.9,708300
2863,54952,WI,winnebago,9.3,129400
2875,53072,WI,waukesha,4.1,268100
2878,94132,CA,san francisco,10.6,728600
2889,34472,FL,marion,13.0,152400
2893,53222,WI,milwaukee,18.2,150700
2896,43082,OH,franklin,16.2,269000
2902,97132,OR,yamhill,11.7,231100
2920,44112,OH,cuyahoga,15.7,87800
2934,95032,CA,santa clara,8.3,1047000
2936,27012,NC,forsyth,14.1,174200
2958,31322,GA,chatham,16.3,181400
2959,3062,NH,hillsborough,7.0,277400
2961,30082,GA,cobb,9.4,204300
2976,19142,PA,philadelphia,23.5,77000
2980,33852,FL,highlands,17.4,179200
3006,95492,CA,sonoma,8.9,604300
3010,97212,OR,multnomah,15.0,438400
3011,22602,VA,frederick,6.6,306700
3015,11572,NY,nassau,4.7,524400
3025,90712,CA,los angeles,14.6,565500
3042,32092,FL,saint johns,6.7,323100
3045,98802,WA,douglas,12.8,193600
3089,43212,OH,franklin,16.2,220900
3090,85742,AZ,pima,14.9,259200
3093,48092,MI,macomb,8.3,158800
3097,37912,TN,knox,12.8,96800
3104,22152,VA,fairfax,5.5,489100
3106,22102,VA,fairfax,5.5,493600
3133,94402,CA,san mateo,6.0,1106000
3139,38122,TN,shelby,20.1,69300
3143,94062,CA,san mateo,6.0,1216200
3145,43202,OH,franklin,16.2,163500
3151,33712,FL,pinellas,11.3,144500
3173,22802,VA,harrisonburg city,26.7,175200
3184,75032,TX,rockwall,5.0,186600
3196,93552,CA,los angeles,14.6,361900
3210,45212,OH,hamilton,13.0,106200
3212,80222,CO,denver,17.4,231400
3214,54902,WI,winnebago,9.3,150500
3217,40222,KY,jefferson,14.6,189200
3221,29582,SC,horry,14.0,317500
3243,60002,IL,lake,6.3,243000
3257,6042,CT,hartford,9.3,203100
3270,64152,MO,jackson,15.0,177700
3295,98112,WA,king,9.9,744400
3297,19802,DE,new castle,10.1,131000
3314,11722,NY,suffolk,5.3,347900
3321,98072,WA,king,9.9,506400
3337,23222,VA,richmond city,22.4,109100
3339,1002,MA,hampshire,11.6,307800
3344,31522,GA,glynn,13.2,395800
3345,73012,OK,oklahoma,15.9,171700
3347,63112,MO,saint louis city,23.0,147100
3350,75092,TX,grayson,12.6,116100
3351,95242,CA,san joaquin,14.2,426300
3355,37412,TN,hamilton,13.5,101500
3365,95632,CA,sacramento,12.2,380500
3374,77802,TX,brazos,26.2,121800
3382,90272,CA,los angeles,14.6,1959500
3386,91042,CA,los angeles,14.6,559300
3390,15202,PA,allegheny,11.6,91700
3403,34982,FL,saint lucie,10.8,186500
3407,28152,NC,cleveland,19.8,91900
3419,87102,NM,bernalillo,14.9,118400
3423,63052,MO,jefferson,9.1,175300
3427,22032,VA,fairfax,5.5,563300
3431,74112,OK,tulsa,14.2,81900
3464,28532,NC,craven,13.9,134200
3482,10512,NY,putnam,6.7,359400
3483,27262,NC,guilford,15.5,100400
3485,11542,NY,nassau,4.7,558500
3499,2852,RI,washington,6.3,354600
3513,91602,CA,los angeles,14.6,793700
3533,60172,IL,du page,4.8,286500
3534,18062,PA,lehigh,9.1,271900
3552,92782,CA,orange,8.9,710200
3555,30122,GA,douglas,10.5,128100
3569,80602,CO,adams,12.8,282200
3577,48042,MI,macomb,8.3,255900
3586,20912,MD,montgomery,5.1,452100
3592,37862,TN,sevier,12.7,169700
3594,55102,MN,ramsey,13.5,206300
3604,64052,MO,jackson,15.0,94800
3607,33912,FL,lee,10.1,363400
3611,90062,CA,los angeles,14.6,445800
3623,36582,AL,mobile,20.8,103300
3625,91302,CA,los angeles,14.6,1303400
3649,44012,OH,lorain,11.2,219400
3651,20602,MD,charles,5.9,318400
3653,88012,NM,dona ana,23.9,146600
3657,91932,CA,san diego,11.1,472300
3675,15132,PA,allegheny,11.6,40200
3677,8002,NJ,camden,10.6,275600
3703,98272,WA,snohomish,8.0,316500
3707,28112,NC,union,7.9,132600
3717,1602,MA,worcester,9.5,256600
3718,61822,IL,champaign,18.2,195600
3725,46202,IN,marion,15.6,137100
3726,93662,CA,fresno,20.0,266900
3732,91792,CA,los angeles,14.6,511800
3736,6002,CT,hartford,9.3,224000
3738,98372,WA,pierce,11.1,309200
3740,80212,CO,denver,17.4,238900
3742,33782,FL,pinellas,11.3,182900
3771,15122,PA,allegheny,11.6,79200
3786,22182,VA,fairfax,5.5,802400
3790,8052,NJ,burlington,5.0,200600
3794,80922,CO,el paso,10.0,213500
3797,45242,OH,hamilton,13.0,212800
3802,98022,WA,king,9.9,330000
3803,30512,GA,union,11.6,200900
3805,84102,UT,salt lake,9.0,200000
3811,94612,CA,alameda,11.0,499600
3836,63042,MO,saint louis,23.0,118300
3854,98532,WA,lewis,14.2,197700
3858,45322,OH,montgomery,14.8,119200
3867,28012,NC,gaston,14.8,115100
3874,84092,UT,salt lake,9.0,360100
3875,22302,VA,alexandria city,8.3,387500
3876,38242,TN,henry,15.1,70000
3879,45102,OH,clermont,9.0,153200
3882,48532,MI,genesee,16.8,122400
3887,98292,WA,snohomish,8.0,347400
3891,13212,NY,onondaga,12.8,97900
3892,92602,CA,orange,8.9,862300
3896,91202,CA,los angeles,14.6,753200
3906,1832,MA,essex,10.4,265800
3942,80232,CO,jefferson,8.1,216900
3947,85132,AZ,pinal,12.5,209800
3959,99502,AK,anchorage,-1.0,281300
3960,75702,TX,smith,14.3,55700
3978,80132,CO,el paso,10.0,377600
3982,35022,AL,jefferson,15.1,143000
4003,10552,NY,westchester,7.7,607600
4006,61802,IL,champaign,18.2,119300
4008,48842,MI,ingham,18.1,178500
4029,91752,CA,riverside,11.7,558700
4054,34202,FL,manatee,10.6,488700
4060,20152,VA,loudoun,3.0,613900
4064,59802,MT,missoula,16.3,210900
4065,2122,MA,suffolk,19.3,305200
4072,90732,CA,los angeles,14.6,631400
4073,32952,FL,brevard,8.6,336300
4086,20832,MD,montgomery,5.1,528100
4087,7652,NJ,bergen,5.9,606700
4101,85212,AZ,maricopa,12.9,336300
4115,48182,MI,monroe,7.8,168400
4123,49002,MI,kalamazoo,16.2,148500
4132,77632,TX,orange,13.5,97500
4151,27312,NC,chatham,11.3,213900
4157,14072,NY,erie,13.7,154000
4174,20112,VA,prince william,5.0,575200
4175,99212,WA,spokane,13.1,140900
4204,55412,MN,hennepin,10.6,175600
4223,34292,FL,sarasota,8.1,336400
4236,21012,MD,anne arundel,5.0,425500
4251,44202,OH,portage,10.8,219600
4268,78752,TX,travis,14.6,145500
4279,90602,CA,los angeles,14.6,568800
4290,94702,CA,alameda,11.0,622200
4291,27712,NC,durham,15.9,172600
4298,80002,CO,jefferson,8.1,205600
4303,80202,CO,denver,17.4,358200
4320,92832,CA,orange,8.9,562600
4346,48442,MI,oakland,8.6,186100
4349,19422,PA,montgomery,5.3,434800
4363,44142,OH,cuyahoga,15.7,123900
4372,48382,MI,oakland,8.6,283900
4382,6062,CT,hartford,9.3,209900
4383,60502,IL,kane,7.8,300000
4400,34102,FL,collier,9.9,671200
4424,23692,VA,york,4.1,330000
4426,33472,FL,palm beach,10.2,389600
4428,53022,WI,washington,5.2,261500
4465,48912,MI,ingham,18.1,110400
4466,37212,TN,davidson,15.2,264600
4469,34772,FL,osceola,11.2,295600
4477,34482,FL,marion,13.0,202000
4492,99202,WA,spokane,13.1,107300
4501,6032,CT,hartford,9.3,290800
4507,2152,MA,suffolk,19.3,373300
4517,44092,OH,lake,6.8,139000
4522,17552,PA,lancaster,8.6,165800
4556,2842,RI,newport,8.3,399100
4572,11762,NY,nassau,4.7,487900
4586,50312,IA,polk,9.4,155800
4595,2882,RI,washington,6.3,467300
4611,28312,NC,cumberland,17.2,115200
4619,98422,WA,pierce,11.1,355100
4626,34242,FL,sarasota,8.1,739300
4629,49512,MI,kent,13.1,162800
4630,11552,NY,nassau,4.7,461800
4639,45202,OH,hamilton,13.0,220500
4674,33872,FL,highlands,17.4,169900
4676,33602,FL,hillsborough,11.6,320000
4677,76082,TX,parker,8.6,117000
4692,48082,MI,macomb,8.3,146400
4702,90222,CA,los angeles,14.6,353500
4703,2492,MA,norfolk,6.4,686300
4721,19342,PA,delaware,9.7,410400
4730,33132,FL,miami-dade,15.3,360100
4747,94022,CA,santa clara,8.3,1949700
4752,14052,NY,erie,13.7,170700
4782,17512,PA,lancaster,8.6,119300
4783,95212,CA,san joaquin,14.2,486000
4784,1742,MA,middlesex,6.9,713200
4792,90232,CA,los angeles,14.6,844600
4813,8872,NJ,middlesex,6.6,317800
4816,28732,NC,henderson,10.9,202400
4818,34222,FL,manatee,10.6,333700
4832,15012,PA,westmoreland,9.5,84400
4837,44022,OH,cuyahoga,15.7,301900
4847,19512,PA,berks,11.1,199700
4852,55362,MN,wright,5.0,207200
4853,75022,TX,denton,7.1,295000
4861,44132,OH,cuyahoga,15.7,106800
4862,48072,MI,oakland,8.6,178500
4868,95602,CA,placer,6.0,528100
4874,98282,WA,island,8.4,341100
4886,48342,MI,oakland,8.6,83400
4891,29302,SC,spartanburg,13.7,117400
4895,16502,PA,erie,14.4,58500
4905,92082,CA,san diego,11.1,646500
4906,37642,TN,hawkins,16.4,88000
4916,19602,PA,berks,11.1,41300
4940,75402,TX,hunt,16.4,89700
4944,18902,PA,bucks,5.2,513000
4947,98942,WA,yakima,19.7,164700
4953,38112,TN,shelby,20.1,65800
4957,45502,OH,clark,15.5,153800
4959,8232,NJ,atlantic,11.9,182200
4982,48302,MI,oakland,8.6,490500
5009,90212,CA,los angeles,14.6,1774800
5017,27282,NC,guilford,15.5,178400
5054,28202,NC,mecklenburg,11.0,262700
5071,61102,IL,winnebago,13.8,64800
5083,15232,PA,allegheny,11.6,224100
5107,77302,TX,montgomery,9.8,136500
5109,14222,NY,erie,13.7,202500
5112,29662,SC,greenville,12.2,131800
5116,21532,MD,allegany,14.2,103000
5118,60542,IL,kane,7.8,263900
5120,72022,AR,saline,10.7,129600
5160,32922,FL,brevard,8.6,125400
5161,8852,NJ,middlesex,6.6,404300
5165,34212,FL,manatee,10.6,436900
5176,63132,MO,saint louis,23.0,191900
5204,45432,OH,greene,9.2,118700
5217,18612,PA,luzerne,11.7,148500
5232,77012,TX,harris,16.3,80200
5248,97232,OR,multnomah,15.0,404800
5281,85262,AZ,maricopa,12.9,1059000
5295,60432,IL,will,5.9,127700
5311,37932,TN,knox,12.8,172300
5313,7522,NJ,passaic,13.4,306400
5315,52002,IA,dubuque,8.8,149200
5318,93402,CA,san luis obispo,11.5,535100
5324,31312,GA,effingham,9.9,177300
5326,98642,WA,clark,9.5,365000
5341,96732,HI,maui,6.8,615600
5347,72002,AR,saline,10.7,114800
5362,11782,NY,suffolk,5.3,477000
5406,98332,WA,pierce,11.1,448000
5411,19462,PA,montgomery,5.3,314600
5421,91902,CA,san diego,11.1,711100
5442,48362,MI,oakland,8.6,206200
5449,32832,FL,orange,11.6,373100
5466,11362,NY,queens,12.2,686900
5472,33412,FL,palm beach,10.2,491200
5475,8882,NJ,middlesex,6.6,320700
5481,7882,NJ,warren,6.2,282600
5482,2632,MA,barnstable,6.6,368900
5486,72202,AR,pulaski,15.5,80600
5491,90502,CA,los angeles,14.6,504700
5507,18512,PA,lackawanna,12.6,110600
5518,2532,MA,barnstable,6.6,341600
5528,1532,MA,worcester,9.5,389900
5538,11702,NY,suffolk,5.3,494000
5544,20012,DC,district of columbia,-1.0,495800
5568,27592,NC,wake,8.5,145000
5578,73122,OK,oklahoma,15.9,97700
5597,19522,PA,berks,11.1,185400
5611,64112,MO,jackson,15.0,265000
5640,76052,TX,tarrant,12.2,187000
5644,6812,CT,fairfield,6.7,395300
5650,55442,MN,hennepin,10.6,330100
5660,14622,NY,monroe,13.3,97500
5665,8062,NJ,gloucester,7.6,383200
5673,2382,MA,plymouth,6.5,301400
5693,10302,NY,richmond,10.1,374600
5696,78732,TX,travis,14.6,337400
5708,75762,TX,smith,14.3,139400
5717,45402,OH,montgomery,14.8,71600
5723,7012,NJ,passaic,13.4,404100
5725,60192,IL,cook,14.6,363100
5728,90402,CA,los angeles,14.6,2569700
5746,18202,PA,luzerne,11.7,108600
5772,2452,MA,middlesex,6.9,438500
5778,29672,SC,oconee,13.9,222900
5784,7762,NJ,monmouth,6.1,588000
5786,53532,WI,dane,10.9,216000
5798,77422,TX,brazoria,9.8,92500
5800,93442,CA,san luis obispo,11.5,629600
5801,73142,OK,oklahoma,15.9,169700
5836,85602,AZ,cochise,16.3,125900
5846,48732,MI,bay,11.7,121300
5848,46582,IN,kosciusko,8.6,130700
5853,13032,NY,madison,11.0,90000
5862,94502,CA,alameda,11.0,730800
5864,91502,CA,los angeles,14.6,580800
5875,27522,NC,granville,13.2,141100
5885,29572,SC,horry,14.0,301800
5888,64082,MO,jackson,15.0,233600
5891,72212,AR,pulaski,15.5,255500
5895,17362,PA,york,8.6,194100
5920,14092,NY,niagara,11.9,136600
5928,86322,AZ,yavapai,12.6,241300
5929,45002,OH,hamilton,13.0,169600
5932,13492,NY,oneida,14.5,117200
5950,37772,TN,loudon,11.1,182500
5954,15022,PA,washington,9.6,57600
5965,2332,MA,plymouth,6.5,559700
5976,17972,PA,schuylkill,11.9,93500
5979,29492,SC,charleston,15.2,517000
5982,8402,NJ,atlantic,11.9,495700
5988,48462,MI,oakland,8.6,232700
5991,94552,CA,alameda,11.0,849800
5997,76692,TX,hill,16.9,73000
6003,20132,VA,loudoun,3.0,577500
6004,18252,PA,schuylkill,11.9,59600
6022,8812,NJ,somerset,3.3,377000
6035,1562,MA,worcester,9.5,245000
6063,23702,VA,portsmouth city,15.6,129200
6085,60152,IL,mchenry,5.3,220300
6087,1062,MA,hampshire,11.6,240100
6095,68512,NE,lancaster,10.9,169000
6113,7022,NJ,bergen,5.9,447500
6124,40242,KY,jefferson,14.6,155100
6138,7062,NJ,union,8.0,298000
6140,1082,MA,hampshire,11.6,174300
6152,11742,NY,suffolk,5.3,412300
6159,85622,AZ,pima,14.9,299300
6163,92252,CA,san bernardino,12.1,183400
6172,65742,MO,greene,13.7,162600
6179,20882,MD,montgomery,5.1,687100
6187,20872,MD,montgomery,5.1,447600
6199,94542,CA,alameda,11.0,772500
6207,48122,MI,wayne,20.8,100500
6210,14212,NY,erie,13.7,60700
6223,97862,OR,umatilla,15.1,111000
6224,33812,FL,polk,12.8,234700
6244,27052,NC,stokes,11.0,116300
6254,16412,PA,erie,14.4,126100
6270,33982,FL,charlotte,9.2,264100
6286,19312,PA,chester,5.5,538500
6287,37062,TN,williamson,5.0,161500
6291,8512,NJ,middlesex,6.6,527500
6318,92582,CA,riverside,11.7,378200
6328,7442,NJ,passaic,13.4,395300
6331,7922,NJ,union,8.0,616200
6336,61072,IL,winnebago,13.8,150900
6346,12572,NY,dutchess,8.7,370400
6347,44062,OH,geauga,5.4,157800
6360,62712,IL,sangamon,12.8,173500
6361,78362,TX,san patricio,17.4,104700
6375,19072,PA,montgomery,5.3,416900
6383,21102,MD,carroll,4.7,321600
6384,28612,NC,burke,16.0,106000
6385,30622,GA,clarke,28.6,207800
6394,1462,MA,worcester,9.5,296100
6404,2052,MA,norfolk,6.4,537200
6408,45152,OH,warren,5.1,182400
6409,12202,NY,albany,11.7,77600
6416,7932,NJ,morris,4.1,619600
6433,45122,OH,clermont,9.0,128700
6437,33592,FL,hillsborough,11.6,236700
6440,19952,DE,kent,12.1,160800
6452,68522,NE,lancaster,10.9,125600
6466,6382,CT,new london,6.9,226600
6469,2482,MA,norfolk,6.4,781700
6472,52802,IA,scott,11.4,75300
6512,19102,PA,philadelphia,23.5,342300
6527,7502,NJ,passaic,13.4,336900
6541,55092,MN,chisago,5.9,252000
6542,20732,MD,calvert,5.2,352100
6547,78642,TX,williamson,6.0,172500
6568,32222,FL,duval,12.4,209100
6569,7452,NJ,bergen,5.9,617400
6597,81632,CO,eagle,6.8,840000
6599,33182,FL,miami-dade,15.3,387000
6603,20712,MD,prince georges,8.1,330300
6605,42262,KY,christian,19.0,84500
6608,10522,NY,westchester,7.7,694900
6611,35222,AL,jefferson,15.1,188700
6612,32132,FL,volusia,14.1,184600
6620,18032,PA,lehigh,9.1,149200
6621,53572,WI,dane,10.9,216500
6634,6482,CT,fairfield,6.7,457900
6641,19962,DE,kent,12.1,162600
6642,81122,CO,la plata,11.3,237500
6644,60422,IL,cook,14.6,276600
6653,1952,MA,essex,10.4,300400
6675,76102,TX,tarrant,12.2,125000
6677,44632,OH,stark,10.9,152600
6679,33042,FL,monroe,10.5,725700
6680,44662,OH,stark,10.9,118500
6690,98252,WA,snohomish,8.0,236800
6700,27542,NC,johnston,12.5,109000
6705,8322,NJ,gloucester,7.6,222900
6711,8722,NJ,ocean,8.4,276300
6737,99712,AK,fairbanks north star,-1.0,232500
6738,8502,NJ,somerset,3.3,693300
6747,60012,IL,mchenry,5.3,367200
6753,8022,NJ,burlington,5.0,342500
6757,15062,PA,westmoreland,9.5,65600
6759,18222,PA,luzerne,11.7,145100
6765,15632,PA,westmoreland,9.5,145400
6772,63012,MO,jefferson,9.1,158100
6779,22172,VA,prince william,5.0,373100
6784,13152,NY,onondaga,12.8,247800
6790,48062,MI,macomb,8.3,186000
6802,95642,CA,amador,10.1,383600
6805,61282,IL,rock island,13.2,83100
6810,31052,GA,bibb,24.2,148200
6819,7642,NJ,bergen,5.9,597700
6837,7512,NJ,passaic,13.4,431000
6842,29172,SC,lexington,10.9,96100
6850,2762,MA,norfolk,6.4,397500
6869,85012,AZ,maricopa,12.9,458800
6870,6712,CT,new haven,9.5,322500
6888,15042,PA,beaver,9.9,140800
6890,15332,PA,washington,9.6,123400
6897,1862,MA,middlesex,6.9,365500
6907,98402,WA,pierce,11.1,251800
6914,27822,NC,wilson,17.8,119700
6927,7722,NJ,monmouth,6.1,815400
6928,10992,NY,orange,10.5,353700
6929,60442,IL,will,5.9,264400
6930,1432,MA,middlesex,6.9,270500
6943,74132,OK,tulsa,14.2,110300
6949,62062,IL,madison,11.3,186900
6956,22712,VA,fauquier,5.7,370400
6966,29322,SC,spartanburg,13.7,122800
6970,54162,WI,brown,10.3,142600
7005,27882,NC,nash,14.6,100500
7012,14472,NY,monroe,13.3,193100
7018,30742,GA,catoosa,11.8,98400
7020,53182,WI,racine,9.2,192500
7021,98922,WA,kittitas,18.6,166800
7028,99022,WA,spokane,13.1,174600
7033,22942,VA,orange,8.6,187500
7042,29472,SC,dorchester,10.7,131200
7049,33332,FL,broward,11.4,709100
7058,60042,IL,mchenry,5.3,202700
7060,1772,MA,worcester,9.5,598700
7075,11752,NY,suffolk,5.3,412000
7084,93622,CA,fresno,20.0,194600
7091,11792,NY,suffolk,5.3,519600
7097,55352,MN,scott,4.2,278700
7103,22812,VA,rockingham,8.3,209800
7107,95742,CA,sacramento,12.2,457400
7115,31302,GA,chatham,16.3,147700
7132,22932,VA,albemarle,8.5,311700
7133,55302,MN,wright,5.0,231700
7142,6052,CT,hartford,9.3,222600
7145,17032,PA,dauphin,11.0,148100
7150,94572,CA,contra costa,8.7,555500
7170,30002,GA,dekalb,14.4,252300
7203,55042,MN,washington,4.7,414700
7209,33762,FL,pinellas,11.3,246000
7229,6762,CT,new haven,9.5,351400
7299,62232,IL,saint clair,15.8,81500
7330,8312,NJ,gloucester,7.6,170500
7350,43502,OH,fulton,8.1,141300
7368,7462,NJ,sussex,4.6,240300
7370,3222,NH,grafton,7.7,216000
7378,1982,MA,essex,10.4,478200
7385,3042,NH,rockingham,4.6,276600
7390,53042,WI,manitowoc,8.6,142700
7400,93022,CA,ventura,8.7,585300
7412,7732,NJ,monmouth,6.1,299500
7425,45232,OH,hamilton,13.0,76000
7426,7432,NJ,bergen,5.9,492200
7431,34602,FL,hernando,8.9,172800
7436,7422,NJ,sussex,4.6,255600
7437,14032,NY,erie,13.7,222400
7440,27572,NC,durham,15.9,176400
7458,44302,OH,summit,14.0,86900
7460,21632,MD,caroline,11.7,168700
7463,74352,OK,mayes,16.8,70900
7480,6422,CT,middlesex,5.2,328300
7487,49302,MI,kent,13.1,221600
7503,36572,AL,mobile,20.8,127600
7513,11942,NY,suffolk,5.3,621000
7520,12822,NY,saratoga,6.9,132500
7524,6612,CT,fairfield,6.7,757900
7581,53122,WI,waukesha,4.1,334100
7584,23192,VA,hanover,5.1,245800
7602,19352,PA,chester,5.5,326600
7623,97882,OR,umatilla,15.1,91500
7624,11952,NY,suffolk,5.3,551100
7629,7092,NJ,union,8.0,692200
7639,97002,OR,marion,15.2,280300
7641,19032,PA,delaware,9.7,109600
7642,84042,UT,utah,11.4,265300
7665,12972,NY,clinton,13.2,130700
7679,6472,CT,new haven,9.5,343800
7682,37082,TN,cheatham,9.3,165100
7688,21152,MD,baltimore,19.9,355400
7694,85552,AZ,graham,22.4,149600
7720,54002,WI,saint croix,5.3,135900
7737,14132,NY,niagara,11.9,115500
7740,3452,NH,cheshire,8.1,200400
7742,28642,NC,yadkin,15.5,78700
7743,56362,MN,stearns,11.7,161300
7747,30802,GA,columbia,6.8,146400
7776,19012,PA,montgomery,5.3,273200
7806,97352,OR,marion,15.2,184900
7810,92662,CA,orange,8.9,2272500
7829,14432,NY,ontario,9.5,94800
7836,33922,FL,lee,10.1,360900
7840,14512,NY,ontario,9.5,94900
7850,2822,RI,washington,6.3,342300
7861,32732,FL,seminole,9.1,376300
7881,12962,NY,clinton,13.2,130200
7885,16662,PA,blair,13.8,110100
7886,30292,GA,pike,11.1,159600
7897,78002,TX,bexar,16.4,98800
7917,15342,PA,washington,9.6,128300
7934,2642,MA,barnstable,6.6,455000
7939,21722,MD,washington,10.5,270500
7940,22842,VA,shenandoah,9.0,173800
7945,15222,PA,allegheny,11.6,176700
7952,17322,PA,york,8.6,202500
7957,7662,NJ,bergen,5.9,418400
7967,7072,NJ,bergen,5.9,429900
7970,44262,OH,summit,14.0,157600
7971,14572,NY,steuben,15.0,73300
7982,3862,NH,rockingham,4.6,400300
7986,92382,CA,san bernardino,12.1,262400
7993,19362,PA,chester,5.5,242200
8003,56352,MN,stearns,11.7,138400
8016,8562,NJ,burlington,5.0,353800
8025,97392,OR,marion,15.2,214700
8042,37022,TN,sumner,9.4,113100
8053,18452,PA,lackawanna,12.6,131300
8072,95722,CA,placer,6.0,517800
8101,80102,CO,adams,12.8,177000
8108,44272,OH,portage,10.8,137400
8109,95692,CA,yuba,19.2,356100
8112,29372,SC,spartanburg,13.7,55600
8113,12522,NY,dutchess,8.7,273100
8128,2832,RI,washington,6.3,294800
8146,2892,RI,washington,6.3,351100
8158,77362,TX,montgomery,9.8,147000
8166,10502,NY,westchester,7.7,685500
8170,53032,WI,dodge,8.3,136900
8185,78652,TX,travis,14.6,179600
8186,13082,NY,onondaga,12.8,113100
8188,92352,CA,san bernardino,12.1,433100
8193,7632,NJ,bergen,5.9,1256200
8196,92372,CA,san bernardino,12.1,356600
8198,55992,MN,goodhue,7.9,183500
8206,7082,NJ,morris,4.1,616900
8207,12992,NY,clinton,13.2,88000
8243,3032,NH,rockingham,4.6,309500
8247,18642,PA,luzerne,11.7,75400
8269,45252,OH,hamilton,13.0,182800
8273,30222,GA,meriwether,20.9,76300
8295,8752,NJ,ocean,8.4,614800
8306,20722,MD,prince georges,8.1,310000
8310,3872,NH,carroll,9.5,223600
8352,44072,OH,geauga,5.4,252400
8359,95672,CA,el dorado,8.2,514900
8366,17922,PA,schuylkill,11.9,126900
8371,95442,CA,sonoma,8.9,706900
8379,22642,VA,warren,9.0,250900
8400,2322,MA,norfolk,6.4,351900
8409,97032,OR,marion,15.2,218000
8412,10532,NY,westchester,7.7,587000
8416,14532,NY,ontario,9.5,88700
8434,80422,CO,gilpin,6.2,250400
8440,8542,NJ,mercer,9.3,471000
8451,97362,OR,marion,15.2,203700
8465,10962,NY,rockland,8.8,543800
8475,32702,FL,lake,9.0,130600
8480,80452,CO,clear creek,7.4,177700
8481,43112,OH,fairfield,8.9,178700
8485,75152,TX,ellis,10.7,98600
8486,8242,NJ,cape may,8.9,212400
8495,75182,TX,dallas,16.9,267300
8498,54742,WI,eau claire,13.0,125700
8502,97532,OR,josephine,17.5,311900
8503,2702,MA,bristol,9.3,356800
8504,6412,CT,middlesex,5.2,316800
8512,20622,MD,charles,5.9,388200
8524,98232,WA,skagit,11.9,353900
8531,12582,NY,dutchess,8.7,413600
8533,14882,NY,tompkins,19.2,148900
8534,15112,PA,allegheny,11.6,48900
8537,43102,OH,fairfield,8.9,128300
8541,14042,NY,cattaraugus,15.8,84200
8543,45872,OH,wood,10.8,81800
8548,21782,MD,washington,10.5,235900
8564,1452,MA,worcester,9.5,265300
8572,2032,MA,norfolk,6.4,414500
8593,32442,FL,jackson,27.3,80500
8594,97462,OR,douglas,14.9,163300
8599,46542,IN,kosciusko,8.6,107800
8610,37032,TN,robertson,11.6,133800
8611,60112,IL,de kalb,11.5,184800
8624,45052,OH,hamilton,13.0,201400
8631,29682,SC,pickens,16.4,115300
8639,32102,FL,lake,9.0,231000
8649,21162,MD,baltimore,19.9,340400
8662,15672,PA,westmoreland,9.5,127500
8667,13132,NY,oswego,13.8,106000
8683,8202,NJ,cape may,8.9,1217900
8686,35452,AL,tuscaloosa,18.6,140400
8688,2562,MA,barnstable,6.6,386600
8696,43222,OH,franklin,16.2,52100
8700,1612,MA,worcester,9.5,321700
8702,17062,PA,perry,8.6,114600
8715,17372,PA,adams,7.4,190200
8722,32462,FL,washington,18.9,70500
8747,93602,CA,fresno,20.0,368100
8749,19022,PA,delaware,9.7,108700
8750,97022,OR,clackamas,9.2,263100
8756,7852,NJ,morris,4.1,370000
8758,37342,TN,coffee,14.2,109400
8771,3782,NH,sullivan,8.9,350300
8776,6092,CT,hartford,9.3,401700
8780,55382,MN,stearns,11.7,203600
8786,8802,NJ,hunterdon,3.7,436500
8813,98932,WA,yakima,19.7,93900
8815,11732,NY,nassau,4.7,671000
8819,54722,WI,eau claire,13.0,119100
8821,48722,MI,saginaw,17.0,94500
8824,14172,NY,niagara,11.9,94900
8826,7702,NJ,monmouth,6.1,505300
8830,8092,NJ,ocean,8.4,361400
8831,98392,WA,kitsap,8.9,222400
8840,55072,MN,pine,12.3,132800
8845,96722,HI,kauai,9.0,718400
8847,80642,CO,weld,11.6,276300
8853,7832,NJ,warren,6.2,314100
8856,68462,NE,lancaster,10.9,132400
8863,15312,PA,washington,9.6,88300
8887,75202,TX,dallas,16.9,171900
8918,43522,OH,wood,10.8,141200
8927,18372,PA,monroe,9.1,244400
8931,18972,PA,bucks,5.2,354900
8940,28742,NC,henderson,10.9,197900
8945,95982,CA,sutter,12.2,260600
8990,1522,MA,worcester,9.5,294600
8997,95372,CA,tuolumne,12.5,312000
9005,21562,MD,allegany,14.2,53700
9011,18322,PA,monroe,9.1,213000
9012,11932,NY,suffolk,5.3,1617000
9013,17562,PA,lancaster,8.6,202200
9015,44402,OH,trumbull,14.6,117300
9017,55032,MN,chisago,5.9,237200
9030,6232,CT,tolland,6.3,256300
9033,63072,MO,franklin,9.5,112700
9038,43542,OH,lucas,16.9,237600
9071,77702,TX,jefferson,17.1,88300
9075,17532,PA,lancaster,8.6,190100
9086,17572,PA,lancaster,8.6,212600
9121,1922,MA,essex,10.4,456600
9125,18942,PA,bucks,5.2,389600
9130,38472,TN,giles,15.0,86700
9131,44822,OH,richland,11.9,127500
9169,72142,AR,pulaski,15.5,134100
9175,19372,PA,chester,5.5,252700
9176,93242,CA,fresno,20.0,171000
9187,66402,KS,shawnee,11.9,102800
9194,6442,CT,middlesex,5.2,386800
9201,55322,MN,carver,3.9,270600
9207,21822,MD,wicomico,13.2,173800
9212,29482,SC,charleston,15.2,1402600
9222,18092,PA,lehigh,9.1,280000
9231,17302,PA,york,8.6,183000
9246,19562,PA,berks,11.1,156300
9247,3602,NH,cheshire,8.1,178400
9255,72722,AR,benton,11.3,126600
9258,80512,CO,larimer,12.2,203300
9261,72952,AR,crawford,18.4,90700
9273,20662,MD,charles,5.9,343900
9274,1022,MA,hampden,16.4,128600
9278,27812,NC,pitt,22.5,65200
9289,97042,OR,clackamas,9.2,314800
9299,29742,SC,york,12.1,78200
9305,16442,PA,erie,14.4,112800
9309,24162,VA,montgomery,19.9,127200
9320,48822,MI,clinton,7.1,167300
9332,24312,VA,carroll,13.9,68700
9346,93272,CA,tulare,23.2,150900
9350,37052,TN,montgomery,12.7,119900
9370,44412,OH,portage,10.8,132200
9373,98592,WA,mason,12.2,289000
9404,1262,MA,berkshire,10.8,422000
9408,93222,CA,kern,18.1,317600
9416,96762,HI,honolulu,7.8,708500
9436,13092,NY,cayuga,12.7,84800
9437,13332,NY,madison,11.0,64600
9438,15142,PA,allegheny,11.6,433100
9439,68372,NE,lancaster,10.9,117800
9459,6782,CT,litchfield,5.4,209800
9474,78152,TX,bexar,16.4,145600
9477,52322,IA,johnson,15.5,138000
9479,17502,PA,lancaster,8.6,162800
9483,21132,MD,harford,5.6,333200
9484,45162,OH,warren,5.1,140600
9500,14012,NY,niagara,11.9,84200
9512,13042,NY,oneida,14.5,88300
9557,12472,NY,ulster,11.2,205300
9599,6752,CT,litchfield,5.4,543100
9600,56312,MN,stearns,11.7,129600
9602,8732,NJ,ocean,8.4,368800
9604,91962,CA,san diego,11.1,417600
9615,30572,GA,union,11.6,206300
9637,1542,MA,worcester,9.5,266300
9648,97442,OR,douglas,14.9,148300
9652,68002,NE,washington,6.6,100900
9696,61012,IL,boone,9.8,161300
9706,74022,OK,washington,11.4,71800
9720,17582,PA,lancaster,8.6,172900
9733,68832,NE,hall,11.5,170100
9737,13112,NY,onondaga,12.8,105500
9743,36562,AL,baldwin,10.3,108500
9749,20842,MD,montgomery,5.1,447800
9754,95942,CA,butte,17.1,307300
9756,28582,NC,onslow,14.2,169500
9762,49342,MI,mecosta,22.0,88100
9767,95462,CA,sonoma,8.9,378800
9777,52352,IA,linn,9.9,108300
9779,38482,TN,maury,12.9,141600
9782,22652,VA,shenandoah,9.0,255600
9784,98342,WA,kitsap,8.9,365200
9801,37142,TN,montgomery,12.7,117300
9820,2462,MA,middlesex,6.9,607700
9853,22742,VA,fauquier,5.7,366300
9856,97452,OR,lane,14.3,171500
9862,3082,NH,hillsborough,7.0,249000
9877,54082,WI,saint croix,5.3,230200
9882,98262,WA,whatcom,15.1,325000
9884,96142,CA,el dorado,8.2,600600
9895,6242,CT,windham,8.5,241100
9904,45312,OH,miami,9.0,144700
9906,1072,MA,franklin,10.5,231100
9914,2812,RI,washington,6.3,325100
9918,3882,NH,carroll,9.5,182500
9924,61232,IL,rock island,13.2,107900
9948,38362,TN,madison,18.8,97000
9954,65612,MO,greene,13.7,125900
9972,6282,CT,windham,8.5,242000
9991,60512,IL,kendall,3.7,233400
9993,21912,MD,cecil,9.3,336600
9996,21662,MD,talbot,8.3,772300
10029,80532,CO,larimer,12.2,234000
